{
    "links": {
        "self": "http://www.neowsapp.com/rest/v1/neo/3716627?api_key=iIulBulltgU6a56xZRHN4H3l9WmuAYTsLGpBGhQ2"
    },
    "id": "3716627",
    "neo_reference_id": "3716627",
    "name": "(2015 HJ9)",
    "designation": "2015 HJ9",
    "nasa_jpl_url": "http://ssd.jpl.nasa.gov/sbdb.cgi?sstr=3716627",
    "absolute_magnitude_h": 25.4,
    "estimated_diameter": {
        "kilometers": {
            "estimated_diameter_min": 0.022108281,
            "estimated_diameter_max": 0.0494356193
        },
        "meters": {
            "estimated_diameter_min": 22.1082810359,
            "estimated_diameter_max": 49.435619262
        },
        "miles": {
            "estimated_diameter_min": 0.0137374447,
            "estimated_diameter_max": 0.0307178602
        },
        "feet": {
            "estimated_diameter_min": 72.5337327539,
            "estimated_diameter_max": 162.1903570994
        }
    },
    "is_potentially_hazardous_asteroid": false,
    "close_approach_data": [
        {
            "close_approach_date": "2015-04-26",
            "close_approach_date_full": "2015-Apr-26 04:11",
            "epoch_date_close_approach": 1430021460000,
            "relative_velocity": {
                "kilometers_per_second": "14.0276830093",
                "kilometers_per_hour": "50499.6588335754",
                "miles_per_hour": "31378.5241235624"
            },
            "miss_distance": {
                "astronomical": "0.1450756729",
                "lunar": "56.4344367581",
                "kilometers": "21703011.654656723",
                "miles": "13485626.1054118574"
            },
            "orbiting_body": "Earth"
        }
    ],
    "orbital_data": {
        "orbit_id": "4",
        "orbit_determination_date": "2017-04-06 08:34:15",
        "first_observation_date": "2015-04-19",
        "last_observation_date": "2015-04-21",
        "data_arc_in_days": 2,
        "observations_used": 18,
        "orbit_uncertainty": "9",
        "minimum_orbit_intersection": ".143026",
        "jupiter_tisserand_invariant": "4.047",
        "epoch_osculation": "2457132.5",
        "eccentricity": ".3393662307154567",
        "semi_major_axis": "1.69035655967272",
        "inclination": "25.39492891900134",
        "ascending_node_longitude": "210.1822010297902",
        "orbital_period": "802.7233789839662",
        "perihelion_distance": "1.116706625451442",
        "perihelion_argument": "29.73232249041752",
        "aphelion_distance": "2.264006493893997",
        "perihelion_time": "2457165.410353811211",
        "mean_anomaly": "345.2405851352778",
        "mean_motion": ".4484732965615927",
        "equinox": "J2000",
        "orbit_class": {
            "orbit_class_type": "AMO",
            "orbit_class_description": "Near-Earth asteroid orbits similar to that of 1221 Amor",
            "orbit_class_range": "1.017 AU < q (perihelion) < 1.3 AU"
        }
    },
    "is_sentry_object": false
}